[
    {
        "Altitude(m)": 706789.0817397527,
        "Argument of Periapsis(deg)": 0.007973084830638947,
        "Eccentricity": 0.0,
        "Inclination(deg)": 45.0,
        "Latitude(deg)": 42.845551708192396,
        "Longitude(deg)": 31.76226267025962,
        "Mean Anomaly(deg)": 73.52775165323659,
        "RAAN(deg)": 64.99247364097926,
        "Satellite Name": "Constellation 1 290",
        "Satellite Number": 290,
        "Semi-Major Axis(m)": 7083131.272910544,
        "Time(s)": 133
    },
    {
        "Altitude(m)": 706792.7710493279,
        "Argument of Periapsis(deg)": 0.008033032836884352,
        "Eccentricity": 0.0,
        "Inclination(deg)": 45.0,
        "Latitude(deg)": 42.86213262756766,
        "Longitude(deg)": 31.837661953671883,
        "Mean Anomaly(deg)": 73.58845279348645,
        "RAAN(deg)": 64.99241705181367,
        "Satellite Name": "Constellation 1 290",
        "Satellite Number": 290,
        "Semi-Major Axis(m)": 7083131.272910544,
        "Time(s)": 134
    },
    {
        "Altitude(m)": 706796.4487521859,
        "Argument of Periapsis(deg)": 0.008092980843129758,
        "Eccentricity": 0.0,
        "Inclination(deg)": 45.0,
        "Latitude(deg)": 42.878658278823494,
        "Longitude(deg)": 31.91310369888688,
        "Mean Anomaly(deg)": 73.64915393373637,
        "RAAN(deg)": 64.99236046264812,
        "Satellite Name": "Constellation 1 290",
        "Satellite Number": 290,
        "Semi-Major Axis(m)": 7083131.272910544,
        "Time(s)": 135
    },
    {
        "Altitude(m)": 706800.1148265582,
        "Argument of Periapsis(deg)": 0.008152928849375162,
        "Eccentricity": 0.0,
        "Inclination(deg)": 45.0,
        "Latitude(deg)": 42.89512860111215,
        "Longitude(deg)": 31.988587811211463,
        "Mean Anomaly(deg)": 73.70985507398625,
        "RAAN(deg)": 64.99230387348256,
        "Satellite Name": "Constellation 1 290",
        "Satellite Number": 290,
        "Semi-Major Axis(m)": 7083131.272910544,
        "Time(s)": 136
    },
    {
        "Altitude(m)": 706803.7692507218,
        "Argument of Periapsis(deg)": 0.008212876855620568,
        "Eccentricity": 0.0,
        "Inclination(deg)": 45.0,
        "Latitude(deg)": 42.91154353370699,
        "Longitude(deg)": 32.064114195387305,
        "Mean Anomaly(deg)": 73.77055621423617,
        "RAAN(deg)": 64.99224728431697,
        "Satellite Name": "Constellation 1 290",
        "Satellite Number": 290,
        "Semi-Major Axis(m)": 7083131.272910544,
        "Time(s)": 137
    },
    {
        "Altitude(m)": 706807.4120030403,
        "Argument of Periapsis(deg)": 0.008272824861865974,
        "Eccentricity": 0.0,
        "Inclination(deg)": 45.0,
        "Latitude(deg)": 42.92790301600327,
        "Longitude(deg)": 32.13968275559023,
        "Mean Anomaly(deg)": 73.8312573544861,
        "RAAN(deg)": 64.99219069515141,
        "Satellite Name": "Constellation 1 290",
        "Satellite Number": 290,
        "Semi-Major Axis(m)": 7083131.272910544,
        "Time(s)": 138
    },
    {
        "Altitude(m)": 706811.0430619447,
        "Argument of Periapsis(deg)": 0.00833277286811138,
        "Eccentricity": 0.0,
        "Inclination(deg)": 45.0,
        "Latitude(deg)": 42.94420698751911,
        "Longitude(deg)": 32.21529339543051,
        "Mean Anomaly(deg)": 73.89195849473599,
        "RAAN(deg)": 64.99213410598584,
        "Satellite Name": "Constellation 1 290",
        "Satellite Number": 290,
        "Semi-Major Axis(m)": 7083131.272910544,
        "Time(s)": 139
    },
    {
        "Altitude(m)": 706814.6624059395,
        "Argument of Periapsis(deg)": 0.008392720874356788,
        "Eccentricity": 0.0,
        "Inclination(deg)": 45.0,
        "Latitude(deg)": 42.96045538789649,
        "Longitude(deg)": 32.29094601795291,
        "Mean Anomaly(deg)": 73.95265963498589,
        "RAAN(deg)": 64.99207751682027,
        "Satellite Name": "Constellation 1 290",
        "Satellite Number": 290,
        "Semi-Major Axis(m)": 7083131.272910544,
        "Time(s)": 140
    },
    {
        "Altitude(m)": 706818.2700136041,
        "Argument of Periapsis(deg)": 0.008452668880602192,
        "Eccentricity": 0.0,
        "Inclination(deg)": 45.0,
        "Latitude(deg)": 42.97664815690168,
        "Longitude(deg)": 32.3666403575396,
        "Mean Anomaly(deg)": 74.01336077523575,
        "RAAN(deg)": 64.9920209276547,
        "Satellite Name": "Constellation 1 290",
        "Satellite Number": 290,
        "Semi-Major Axis(m)": 7083131.272910544,
        "Time(s)": 141
    },
    {
        "Altitude(m)": 706821.8658635792,
        "Argument of Periapsis(deg)": 0.008512616886847598,
        "Eccentricity": 0.0,
        "Inclination(deg)": 45.0,
        "Latitude(deg)": 42.99278523442754,
        "Longitude(deg)": 32.44237665229908,
        "Mean Anomaly(deg)": 74.07406191548569,
        "RAAN(deg)": 64.99196433848913,
        "Satellite Name": "Constellation 1 290",
        "Satellite Number": 290,
        "Semi-Major Axis(m)": 7083131.272910544,
        "Time(s)": 142
    },
    {
        "Altitude(m)": 706825.4499345934,
        "Argument of Periapsis(deg)": 0.008572564893093004,
        "Eccentricity": 0.0,
        "Inclination(deg)": 45.0,
        "Latitude(deg)": 43.00886656049245,
        "Longitude(deg)": 32.51815463548273,
        "Mean Anomaly(deg)": 74.13476305573555,
        "RAAN(deg)": 64.99190774932357,
        "Satellite Name": "Constellation 1 290",
        "Satellite Number": 290,
        "Semi-Major Axis(m)": 7083131.272910544,
        "Time(s)": 143
    },
    {
        "Altitude(m)": 706829.0222054304,
        "Argument of Periapsis(deg)": 0.008632512899338408,
        "Eccentricity": 0.0,
        "Inclination(deg)": 45.0,
        "Latitude(deg)": 43.02489207524265,
        "Longitude(deg)": 32.59397420787442,
        "Mean Anomaly(deg)": 74.19546419598547,
        "RAAN(deg)": 64.99185116015799,
        "Satellite Name": "Constellation 1 290",
        "Satellite Number": 290,
        "Semi-Major Axis(m)": 7083131.272910544,
        "Time(s)": 144
    },
    {
        "Altitude(m)": 706832.5826549602,
        "Argument of Periapsis(deg)": 0.008692460905583814,
        "Eccentricity": 0.0,
        "Inclination(deg)": 45.0,
        "Latitude(deg)": 43.04086171895263,
        "Longitude(deg)": 32.66983526969269,
        "Mean Anomaly(deg)": 74.25616533623534,
        "RAAN(deg)": 64.99179457099243,
        "Satellite Name": "Constellation 1 290",
        "Satellite Number": 290,
        "Semi-Major Axis(m)": 7083131.272910544,
        "Time(s)": 145
    },
    {
        "Altitude(m)": 706836.1312621183,
        "Argument of Periapsis(deg)": 0.00875240891182922,
        "Eccentricity": 0.0,
        "Inclination(deg)": 45.0,
        "Latitude(deg)": 43.05677543202622,
        "Longitude(deg)": 32.74573772059147,
        "Mean Anomaly(deg)": 74.31686647648527,
        "RAAN(deg)": 64.99173798182684,
        "Satellite Name": "Constellation 1 290",
        "Satellite Number": 290,
        "Semi-Major Axis(m)": 7083131.272910544,
        "Time(s)": 146
    },
    {
        "Altitude(m)": 706839.6680059135,
        "Argument of Periapsis(deg)": 0.008812356918074627,
        "Eccentricity": 0.0,
        "Inclination(deg)": 45.0,
        "Latitude(deg)": 43.07263315499734,
        "Longitude(deg)": 32.821681459659835,
        "Mean Anomaly(deg)": 74.37756761673518,
        "RAAN(deg)": 64.99168139266129,
        "Satellite Name": "Constellation 1 290",
        "Satellite Number": 290,
        "Semi-Major Axis(m)": 7083131.272910544,
        "Time(s)": 147
    },
    {
        "Altitude(m)": 706843.1928654278,
        "Argument of Periapsis(deg)": 0.008872304924320031,
        "Eccentricity": 0.0,
        "Inclination(deg)": 45.0,
        "Latitude(deg)": 43.088434828530815,
        "Longitude(deg)": 32.89766621732536,
        "Mean Anomaly(deg)": 74.43826875698508,
        "RAAN(deg)": 64.99162480349572,
        "Satellite Name": "Constellation 1 290",
        "Satellite Number": 290,
        "Semi-Major Axis(m)": 7083131.272910544,
        "Time(s)": 148
    },
    {
        "Altitude(m)": 706846.7058198146,
        "Argument of Periapsis(deg)": 0.008932252930565437,
        "Eccentricity": 0.0,
        "Inclination(deg)": 45.0,
        "Latitude(deg)": 43.10418039342425,
        "Longitude(deg)": 32.97369222774275,
        "Mean Anomaly(deg)": 74.49896989723494,
        "RAAN(deg)": 64.99156821433014,
        "Satellite Name": "Constellation 1 290",
        "Satellite Number": 290,
        "Semi-Major Axis(m)": 7083131.272910544,
        "Time(s)": 149
    },
    {
        "Altitude(m)": 706850.2068483066,
        "Argument of Periapsis(deg)": 0.008992200936810843,
        "Eccentricity": 0.0,
        "Inclination(deg)": 45.0,
        "Latitude(deg)": 43.1198697906074,
        "Longitude(deg)": 33.049759220211286,
        "Mean Anomaly(deg)": 74.55967103748485,
        "RAAN(deg)": 64.99151162516458,
        "Satellite Name": "Constellation 1 290",
        "Satellite Number": 290,
        "Semi-Major Axis(m)": 7083131.272910544,
        "Time(s)": 150
    },
    {
        "Altitude(m)": 706853.6959301977,
        "Argument of Periapsis(deg)": 0.009052148943056249,
        "Eccentricity": 0.0,
        "Inclination(deg)": 45.0,
        "Latitude(deg)": 43.13550296114406,
        "Longitude(deg)": 33.1258670915634,
        "Mean Anomaly(deg)": 74.62037217773477,
        "RAAN(deg)": 64.99145503599901,
        "Satellite Name": "Constellation 1 290",
        "Satellite Number": 290,
        "Semi-Major Axis(m)": 7083131.272910544,
        "Time(s)": 151
    }
]